[{"OBJECT_NAME":"ONEWEB-0543","OBJECT_ID":"2023-004D","EPOCH":"2026-03-09T20:11:45.152448","MEAN_MOTION":13.18686027,"ECCENTRICITY":0.00017199,"INCLINATION":87.9232,"RA_OF_ASC_NODE":355.2106,"ARG_OF_PERICENTER":88.1217,"MEAN_ANOMALY":272.0112,"EPHEMERIS_TYPE":0,"CLASSIFICATION_TYPE":"U","NORAD_CAT_ID":55143,"ELEMENT_SET_NO":999,"REV_AT_EPOCH":15660,"BSTAR":-0.00024476313,"MEAN_MOTION_DOT":-8.4e-7,"MEAN_MOTION_DDOT":0},{"OBJECT_NAME":"COSMOS 375 DEB","OBJECT_ID":"1970-091AV","EPOCH":"2026-03-08T14:58:13.963008","MEAN_MOTION":13.44113345,"ECCENTRICITY":0.07825177,"INCLINATION":62.6579,"RA_OF_ASC_NODE":178.3172,"ARG_OF_PERICENTER":107.019,"MEAN_ANOMALY":261.8029,"EPHEMERIS_TYPE":0,"CLASSIFICATION_TYPE":"U","NORAD_CAT_ID":18866,"ELEMENT_SET_NO":999,"REV_AT_EPOCH":70150,"BSTAR":0.0010424485,"MEAN_MOTION_DOT":4.043e-5,"MEAN_MOTION_DDOT":0}]
